ION SCV-004             
1 50993U 22002K   26068.68892644  .00006538  00000+0  23198-3 0  9998
2 50993  97.2961 128.2294 0007216   1.6783 358.4480 15.29369331230088
STARLINK-32182          
1 60319U 24133U   26068.05834168  .00000255  00000+0  20727-4 0  9992
2 60319  53.1600 299.9979 0001080  85.6382 274.4742 15.30193796 91544
